{
  "norad_id": 66516,
  "name": "STARLINK-35924",
  "history": [
    {
      "epoch": "2026-03-28T16:45:49.746816Z",
      "apogee_km": 483.9232099074916,
      "perigee_km": 482.14973378848845,
      "latitude_deg": 3.8954979524195e-05,
      "longitude_deg": 92.7529617316231,
      "height_km": 482.9117988351062,
      "semi_major_axis_km": 6861.17347184799,
      "eccentricity": 0.00012924,
      "inclination_deg": 42.9995,
      "raan_deg": 170.3254,
      "arg_perigee_deg": 263.6031,
      "mean_anomaly_deg": 96.4674,
      "mean_motion_rev_day": 15.27584216
    }
  ]
}