{"fetched_at":"2026-03-29T16:36:15Z","count":15609,"tles":[{"name":"STARLINK-35924","line1":"1 66516U 25265A   26087.69849244  .00025310  00000+0  92598-3 0  9999","line2":"2 66516  42.9995 170.3254 0001292 263.6031  96.4674 15.27584216 20022","category":"Starlink"}]}